OBJECT_NAME,OBJECT_ID,EPOCH,MEAN_MOTION,ECCENTRICITY,INCLINATION,RA_OF_ASC_NODE,ARG_OF_PERICENTER,MEAN_ANOMALY,EPHEMERIS_TYPE,CLASSIFICATION_TYPE,NORAD_CAT_ID,ELEMENT_SET_NO,REV_AT_EPOCH,BSTAR,MEAN_MOTION_DOT,MEAN_MOTION_DDOT
BEIDOU-2 G3,2010-024A,2026-07-01T20:42:34.254144,1.00270987,.00079672,4.5490,61.4551,357.3862,251.3819,0,U,36590,999,5891,0,-.128E-5,0
BADR-5,2010-025A,2026-07-01T20:39:02.318400,1.00269782,.00043303,0.0524,118.4203,69.8684,71.8481,0,U,36592,999,5336,0,.164E-5,0
COMS 1,2010-032A,2026-07-01T23:21:38.039616,0.99168833,.00118181,4.8409,75.1829,13.7699,196.0256,0,U,36744,999,5123,0,-.72E-6,0
ARABSAT-5A,2010-032B,2026-07-01T20:39:02.329632,1.00274312,.00057384,0.0815,57.8276,58.3870,143.9553,0,U,36745,999,5879,0,.164E-5,0
ECHOSTAR 15,2010-034A,2026-07-01T21:40:23.128608,1.00269091,.00027276,0.0377,284.4148,149.2370,52.6099,0,U,36792,999,5847,0,.1E-6,0
BEIDOU-2 IGSO-1,2010-036A,2026-06-30T08:59:38.680800,1.00268449,.00588274,54.3057,162.8407,225.1163,132.8817,0,U,36828,999,5822,0,-.82E-6,0
NILESAT 201,2010-037A,2026-07-01T20:50:25.624032,1.00272067,.00054417,0.0509,214.1448,272.3663,99.0152,0,U,36830,999,5852,0,-.47E-6,0
RASCOM-QAF 1R,2010-037B,2026-07-01T20:53:10.361184,1.00271654,.00065136,0.0384,74.3205,19.9577,141.8109,0,U,36831,999,5845,0,0,0
AEHF-1 (USA 214),2010-039A,2026-07-01T23:14:17.356416,1.00269045,.00041433,8.2550,67.8520,30.2940,200.4022,0,U,36868,999,5380,0,.153E-5,0
XM-5,2010-053A,2026-07-01T22:01:47.373888,1.00270594,.00026387,0.0668,268.4827,286.8118,299.9137,0,U,37185,999,5763,0,-.12E-6,0
BSAT-3B,2010-056B,2026-07-01T22:31:15.625920,1.00269644,.00023203,0.0631,234.6857,293.4564,199.4903,0,U,37207,999,5224,0,-.339E-5,0
BEIDOU-2 G4,2010-057A,2026-07-01T23:40:29.280000,1.00271508,.0004859,3.6820,68.8626,189.1491,177.1205,0,U,37210,999,5744,0,-.104E-5,0
SKYTERRA 1,2010-061A,2026-07-01T16:57:41.267232,1.00270658,.00023909,5.1543,50.8288,36.0483,345.9963,0,U,37218,999,5734,0,-.11E-5,0
HYLAS 1,2010-065A,2026-06-30T07:17:51.718848,1.00272596,.00010436,5.6751,72.8623,340.0885,348.6881,0,U,37237,999,701,0,.96E-6,0
INTELSAT 17 (IS-17),2010-065B,2026-07-01T22:54:21.718656,1.00270653,.00026937,0.0295,84.4606,37.3725,207.7338,0,U,37238,999,5339,0,0,0
BEIDOU-2 IGSO-2,2010-068A,2026-06-30T16:18:05.669856,1.00279341,.00565661,47.5224,271.6646,213.8845,145.9362,0,U,37256,999,5693,0,-.187E-5,0
EUTELSAT KA-SAT 9A,2010-069A,2026-07-01T20:55:38.747136,1.00267490,.00041405,0.0607,12.6745,127.5362,102.6028,0,U,37258,999,4415,0,.71E-6,0
HISPASAT 30W-5,2010-070A,2026-07-01T17:18:31.768992,1.00271825,.00058435,0.0388,107.9174,5.4937,35.9968,0,U,37264,999,5333,0,-.205E-5,0
KOREASAT 6,2010-070B,2026-07-01T21:37:58.311840,1.00272246,.00026885,0.0144,51.7696,59.8204,292.7361,0,U,37265,999,5691,0,-.101E-5,0
BEIDOU-2 IGSO-3,2011-013A,2026-07-01T12:49:50.551968,1.00264921,.00352253,62.4273,40.0161,184.0407,355.1634,0,U,37384,999,5580,0,-.159E-5,0
INTELSAT 28 (IS-28),2011-016A,2026-07-01T19:00:42.870240,1.00270148,.00039925,1.8419,82.4554,18.1963,72.6195,0,U,37392,999,5343,0,-.216E-5,0
YAHSAT 1A,2011-016B,2026-07-01T21:07:19.774272,1.00269812,.00036576,0.0190,38.5388,77.7658,172.9602,0,U,37393,999,4255,0,0,0
SBIRS GEO-1 (USA 230),2011-019A,2026-07-01T19:31:38.808768,1.00272281,.00019255,4.5677,53.1152,39.6054,171.8472,0,U,37481,999,5554,0,.108E-5,0
TELSTAR 14R,2011-021A,2026-07-01T22:17:00.913056,1.00271227,.00023041,0.0535,82.0236,354.0345,115.1815,0,U,37602,999,5598,0,-.269E-5,0
GSAT-8,2011-022A,2026-07-01T21:08:04.702272,1.00272728,.00018261,2.1670,81.6550,173.9326,36.4577,0,U,37605,999,5336,0,.93E-6,0
ST-2,2011-022B,2026-07-01T21:42:46.702944,1.00272214,.0001769,0.0182,44.1291,65.3380,224.2047,0,U,37606,999,5542,0,-.201E-5,0
ZHONGXING-10,2011-026A,2026-07-01T22:59:26.458368,1.00272130,.00038086,1.0839,84.0505,10.6770,255.6722,0,U,37677,999,5514,0,-.179E-5,0
SES-3,2011-035A,2026-07-01T22:05:39.503040,1.00272349,.00024106,1.3628,82.9421,8.8240,56.6204,0,U,37748,999,5474,0,-.92E-6,0
KAZSAT-2,2011-035B,2026-07-01T21:40:45.840576,1.00273613,.00017811,0.0119,75.3648,77.8429,178.4355,0,U,37749,999,5354,0,-.188E-5,0
BEIDOU-2 IGSO-4,2011-038A,2026-06-30T22:39:21.613824,1.00282911,.01596501,54.6040,165.5504,231.3791,315.8344,0,U,37763,999,5478,0,.17E-6,0
ASTRA 1N,2011-041A,2026-07-01T23:28:22.692288,1.00272588,.00059111,0.0888,43.7000,55.6912,191.9036,0,U,37775,999,4467,0,.13E-5,0
BSAT-3C (JCSAT-110R),2011-041B,2026-07-01T22:44:46.080384,1.00274400,.0000765,0.0300,310.8531,192.5705,227.7059,0,U,37776,999,5061,0,-.34E-5,0
