BEIDOU-2 G3             
1 36590U 10024A   26182.86289646 -.00000128  00000+0  00000+0 0  9998
2 36590   4.5490  61.4551 0007967 357.3862 251.3819  1.00270987 58918
BADR-5                  
1 36592U 10025A   26182.86044350  .00000164  00000+0  00000+0 0  9991
2 36592   0.0524 118.4203 0004330  69.8684  71.8481  1.00269782 53369
COMS 1                  
1 36744U 10032A   26182.97335694 -.00000072  00000+0  00000+0 0  9993
2 36744   4.8409  75.1829 0011818  13.7699 196.0256  0.99168833 51234
ARABSAT-5A              
1 36745U 10032B   26182.86044363  .00000164  00000+0  00000+0 0  9993
2 36745   0.0815  57.8276 0005738  58.3870 143.9553  1.00274312 58799
ECHOSTAR 15             
1 36792U 10034A   26182.90304547  .00000010  00000+0  00000+0 0  9995
2 36792   0.0377 284.4148 0002727 149.2370  52.6099  1.00269091 58474
BEIDOU-2 IGSO-1         
1 36828U 10036A   26181.37475325 -.00000082  00000+0  00000+0 0  9990
2 36828  54.3057 162.8407 0058827 225.1163 132.8817  1.00268449 58222
NILESAT 201             
1 36830U 10037A   26182.86835213 -.00000047  00000+0  00000+0 0  9996
2 36830   0.0509 214.1448 0005441 272.3663  99.0152  1.00272067 58524
RASCOM-QAF 1R           
1 36831U 10037B   26182.87025881  .00000000  00000+0  00000+0 0  9998
2 36831   0.0384  74.3205 0006513  19.9577 141.8109  1.00271654 58454
AEHF-1 (USA 214)        
1 36868U 10039A   26182.96825644  .00000153  00000+0  00000+0 0  9994
2 36868   8.2550  67.8520 0004143  30.2940 200.4022  1.00269045 53804
XM-5                    
1 37185U 10053A   26182.91790942 -.00000012  00000+0  00000+0 0  9995
2 37185   0.0668 268.4827 0002638 286.8118 299.9137  1.00270594 57635
BSAT-3B                 
1 37207U 10056B   26182.93837530 -.00000339  00000+0  00000+0 0  9992
2 37207   0.0631 234.6857 0002320 293.4564 199.4903  1.00269644 52246
BEIDOU-2 G4             
1 37210U 10057A   26182.98645000 -.00000104  00000+0  00000+0 0  9991
2 37210   3.6820  68.8626 0004859 189.1491 177.1205  1.00271508 57446
SKYTERRA 1              
1 37218U 10061A   26182.70672763 -.00000110  00000+0  00000+0 0  9997
2 37218   5.1543  50.8288 0002390  36.0483 345.9963  1.00270658 57347
HYLAS 1                 
1 37237U 10065A   26181.30407082  .00000096  00000+0  00000+0 0  9999
2 37237   5.6751  72.8623 0001043 340.0885 348.6881  1.00272596  7010
INTELSAT 17 (IS-17)     
1 37238U 10065B   26182.95441804  .00000000  00000+0  00000+0 0  9997
2 37238   0.0295  84.4606 0002693  37.3725 207.7338  1.00270653 53390
BEIDOU-2 IGSO-2         
1 37256U 10068A   26181.67923229 -.00000187  00000+0  00000+0 0  9991
2 37256  47.5224 271.6646 0056566 213.8845 145.9362  1.00279341 56930
EUTELSAT KA-SAT 9A      
1 37258U 10069A   26182.87197624  .00000071  00000+0  00000+0 0  9990
2 37258   0.0607  12.6745 0004140 127.5362 102.6028  1.00267490 44152
HISPASAT 30W-5          
1 37264U 10070A   26182.72120103 -.00000205  00000+0  00000+0 0  9991
2 37264   0.0388 107.9174 0005843   5.4937  35.9968  1.00271825 53330
KOREASAT 6              
1 37265U 10070B   26182.90136935 -.00000101  00000+0  00000+0 0  9997
2 37265   0.0144  51.7696 0002688  59.8204 292.7361  1.00272246 56915
BEIDOU-2 IGSO-3         
1 37384U 11013A   26182.53461287 -.00000159  00000+0  00000+0 0  9990
2 37384  62.4273  40.0161 0035225 184.0407 355.1634  1.00264921 55804
INTELSAT 28 (IS-28)     
1 37392U 11016A   26182.79216285 -.00000216  00000+0  00000+0 0  9990
2 37392   1.8419  82.4554 0003992  18.1963  72.6195  1.00270148 53436
YAHSAT 1A               
1 37393U 11016B   26182.88008998  .00000000  00000+0  00000+0 0  9991
2 37393   0.0190  38.5388 0003657  77.7658 172.9602  1.00269812 42555
SBIRS GEO-1 (USA 230)   
1 37481U 11019A   26182.81364362  .00000108  00000+0  00000+0 0  9994
2 37481   4.5677  53.1152 0001925  39.6054 171.8472  1.00272281 55547
TELSTAR 14R             
1 37602U 11021A   26182.92848279 -.00000269  00000+0  00000+0 0  9997
2 37602   0.0535  82.0236 0002304 354.0345 115.1815  1.00271227 55988
GSAT-8                  
1 37605U 11022A   26182.88060998  .00000093  00000+0  00000+0 0  9994
2 37605   2.1670  81.6550 0001826 173.9326  36.4577  1.00272728 53360
ST-2                    
1 37606U 11022B   26182.90470721 -.00000201  00000+0  00000+0 0  9999
2 37606   0.0182  44.1291 0001769  65.3380 224.2047  1.00272214 55420
ZHONGXING-10            
1 37677U 11026A   26182.95794512 -.00000179  00000+0  00000+0 0  9997
2 37677   1.0839  84.0505 0003808  10.6770 255.6722  1.00272130 55145
SES-3                   
1 37748U 11035A   26182.92059610 -.00000092  00000+0  00000+0 0  9990
2 37748   1.3628  82.9421 0002410   8.8240  56.6204  1.00272349 54747
KAZSAT-2                
1 37749U 11035B   26182.90330834 -.00000188  00000+0  00000+0 0  9995
2 37749   0.0119  75.3648 0001781  77.8429 178.4355  1.00273613 53543
BEIDOU-2 IGSO-4         
1 37763U 11038A   26181.94400016  .00000017  00000+0  00000+0 0  9997
2 37763  54.6040 165.5504 0159650 231.3791 315.8344  1.00282911 54781
ASTRA 1N                
1 37775U 11041A   26182.97804042  .00000130  00000+0  00000+0 0  9991
2 37775   0.0888  43.7000 0005911  55.6912 191.9036  1.00272588 44676
BSAT-3C (JCSAT-110R)    
1 37776U 11041B   26182.94775556 -.00000340  00000+0  00000+0 0  9990
2 37776   0.0300 310.8531 0000765 192.5705 227.7059  1.00274400 50615
